{"type": "FeatureCollection", "features": [ {"type": "Feature", "properties": {"norad_id": 30306, "name": "FENGYUN 1C DEB", "group": "fengyun-1c-debris", "lat": -62.530774353582, "lon": 58.062195975961366, "alt_km": 729.0120775852001, "timestamp": "2025-12-26T07:29:18.731064+00:00", "meta": {"OBJECT_NAME": "FENGYUN 1C DEB", "OBJECT_ID": "1999-025ZT", "EPOCH": "2025-12-25T20:00:41.400000", "MEAN_MOTION": 14.28266969, "ECCENTRICITY": 0.01128706, "INCLINATION": 98.5854, "RA_OF_ASC_NODE": 40.6987, "ARG_OF_PERICENTER": 318.7976, "MEAN_ANOMALY": 40.4726, "EPHEMERIS_TYPE": 0, "CLASSIFICATION_TYPE": "U", "NORAD_CAT_ID": 30306, "ELEMENT_SET_NO": 999, "REV_AT_EPOCH": 97868, "BSTAR": 0.00095478537, "MEAN_MOTION_DOT": 2.505e-05, "MEAN_MOTION_DDOT": 0}, "tle": {"line1": "1 30306U 99025ZT  25359.83381250  .00002505  00000+0  95479-3 0  9999", "line2": "2 30306  98.5854  40.6987 0112870 318.7976  40.4726 14.28266969978681"}}, "geometry": {"type": "Point", "coordinates": [58.062195975961366, -62.530774353582]}}, {"type": "Feature", "properties": {"norad_id": 30309, "name": "FENGYUN 1C DEB", "group": "fengyun-1c-debris", "lat": -51.174524351514584, "lon": 69.09144354961677, "alt_km": 983.8812110639592, "timestamp": "2025-12-26T07:29:18.731074+00:00", "meta": {"OBJECT_NAME": "FENGYUN 1C DEB", "OBJECT_ID": "1999-025ZW", "EPOCH": "2025-12-25T02:26:54.470112", "MEAN_MOTION": 13.93529671, "ECCENTRICITY": 0.00937983, "INCLINATION": 99.2244, "RA_OF_ASC_NODE": 56.2351, "ARG_OF_PERICENTER": 158.4311, "MEAN_ANOMALY": 202.0841, "EPHEMERIS_TYPE": 0, "CLASSIFICATION_TYPE": "U", "NORAD_CAT_ID": 30309, "ELEMENT_SET_NO": 999, "REV_AT_EPOCH": 96205, "BSTAR": 0.00039003449, "MEAN_MOTION_DOT": 4.86e-06, "MEAN_MOTION_DDOT": 0}, "tle": {"line1": "1 30309U 99025ZW  25359.10201933  .00000486  00000+0  39003-3 0  9998", "line2": "2 30309  99.2244  56.2351 0093798 158.4311 202.0841 13.93529671962053"}}, "geometry": {"type": "Point", "coordinates": [69.09144354961677, -51.174524351514584]}}, {"type": "Feature", "properties": {"norad_id": 30310, "name": "FENGYUN 1C DEB", "group": "fengyun-1c-debris", "lat": -49.32472334523448, "lon": -170.79143032747763, "alt_km": 864.2893049226032, "timestamp": "2025-12-26T07:29:18.731084+00:00", "meta": {"OBJECT_NAME": "FENGYUN 1C DEB", "OBJECT_ID": "1999-025ZX", "EPOCH": "2025-12-23T18:42:17.307936", "MEAN_MOTION": 14.0841603, "ECCENTRICITY": 0.02404585, "INCLINATION": 98.6639, "RA_OF_ASC_NODE": 16.993, "ARG_OF_PERICENTER": 326.1615, "MEAN_ANOMALY": 32.4407, "EPHEMERIS_TYPE": 0, "CLASSIFICATION_TYPE": "U", "NORAD_CAT_ID": 30310, "ELEMENT_SET_NO": 999, "REV_AT_EPOCH": 96887, "BSTAR": 0.00058910425, "MEAN_MOTION_DOT": 1.271e-05, "MEAN_MOTION_DDOT": 0}, "tle": {"line1": "1 30310U 99025ZX  25357.77936699  .00001271  00000+0  58910-3 0  9996", "line2": "2 30310  98.6639  16.9930 0240458 326.1615  32.4407 14.08416030968870"}}, "geometry": {"type": "Point", "coordinates": [-170.79143032747763, -49.32472334523448]}}, {"type": "Feature", "properties": {"norad_id": 30311, "name": "FENGYUN 1C DEB", "group": "fengyun-1c-debris", "lat": 22.575392297709524, "lon": 91.66103788640883, "alt_km": 1060.668812976327, "timestamp": "2025-12-26T07:29:18.731094+00:00", "meta": {"OBJECT_NAME": "FENGYUN 1C DEB", "OBJECT_ID": "1999-025ZY", "EPOCH": "2025-12-25T19:10:31.712160", "MEAN_MOTION": 13.77900695, "ECCENTRICITY": 0.01656617, "INCLINATION": 99.1388, "RA_OF_ASC_NODE": 95.0044, "ARG_OF_PERICENTER": 162.4912, "MEAN_ANOMALY": 198.2046, "EPHEMERIS_TYPE": 0, "CLASSIFICATION_TYPE": "U", "NORAD_CAT_ID": 30311, "ELEMENT_SET_NO": 999, "REV_AT_EPOCH": 95140, "BSTAR": 0.00040785949, "MEAN_MOTION_DOT": 4.11e-06, "MEAN_MOTION_DDOT": 0}, "tle": {"line1": "1 30311U 99025ZY  25359.79897815  .00000411  00000+0  40786-3 0  9994", "line2": "2 30311  99.1388  95.0044 0165661 162.4912 198.2046 13.77900695951406"}}, "geometry": {"type": "Point", "coordinates": [91.66103788640883, 22.575392297709524]}}, {"type": "Feature", "properties": {"norad_id": 30312, "name": "FENGYUN 1C DEB", "group": "fengyun-1c-debris", "lat": -19.421474656673496, "lon": -102.9579871786798, "alt_km": 735.9667704005697, "timestamp": "2025-12-26T07:29:18.731103+00:00", "meta": {"OBJECT_NAME": "FENGYUN 1C DEB", "OBJECT_ID": "1999-025ZZ", "EPOCH": "2025-12-25T19:30:26.789184", "MEAN_MOTION": 14.46040646, "ECCENTRICITY": 0.00120601, "INCLINATION": 98.8661, "RA_OF_ASC_NODE": 79.6752, "ARG_OF_PERICENTER": 174.8617, "MEAN_ANOMALY": 307.3404, "EPHEMERIS_TYPE": 0, "CLASSIFICATION_TYPE": "U", "NORAD_CAT_ID": 30312, "ELEMENT_SET_NO": 999, "REV_AT_EPOCH": 98109, "BSTAR": 0.00248316, "MEAN_MOTION_DOT": 8.824e-05, "MEAN_MOTION_DDOT": 0}, "tle": {"line1": "1 30312U 99025ZZ  25359.81281006  .00008824  00000+0  24832-2 0  9996", "line2": "2 30312  98.8661  79.6752 0012060 174.8617 307.3404 14.46040646981091"}}, "geometry": {"type": "Point", "coordinates": [-102.9579871786798, -19.421474656673496]}}, {"type": "Feature", "properties": {"norad_id": 30313, "name": "FENGYUN 1C DEB", "group": "fengyun-1c-debris", "lat": 7.348990128173, "lon": 85.48893024421487, "alt_km": 795.5124237051805, "timestamp": "2025-12-26T07:29:18.731113+00:00", "meta": {"OBJECT_NAME": "FENGYUN 1C DEB", "OBJECT_ID": "1999-025AAA", "EPOCH": "2025-12-25T03:08:32.612928", "MEAN_MOTION": 14.255473, "ECCENTRICITY": 0.00570264, "INCLINATION": 98.8743, "RA_OF_ASC_NODE": 85.4486, "ARG_OF_PERICENTER": 299.1773, "MEAN_ANOMALY": 129.8355, "EPHEMERIS_TYPE": 0, "CLASSIFICATION_TYPE": "U", "NORAD_CAT_ID": 30313, "ELEMENT_SET_NO": 999, "REV_AT_EPOCH": 97266, "BSTAR": 0.0018821913, "MEAN_MOTION_DOT": 4.485e-05, "MEAN_MOTION_DDOT": 0}, "tle": {"line1": "1 30313U 99025AAA 25359.13093302  .00004485  00000+0  18822-2 0  9993", "line2": "2 30313  98.8743  85.4486 0057026 299.1773 129.8355 14.25547300972668"}}, "geometry": {"type": "Point", "coordinates": [85.48893024421487, 7.348990128173]}}, {"type": "Feature", "properties": {"norad_id": 30314, "name": "FENGYUN 1C DEB", "group": "fengyun-1c-debris", "lat": -74.49823645891657, "lon": -137.79536665297394, "alt_km": 812.3656701640366, "timestamp": "2025-12-26T07:29:18.731123+00:00", "meta": {"OBJECT_NAME": "FENGYUN 1C DEB", "OBJECT_ID": "1999-025AAB", "EPOCH": "2025-12-19T07:54:02.351232", "MEAN_MOTION": 14.0121396, "ECCENTRICITY": 0.0143407, "INCLINATION": 98.3834, "RA_OF_ASC_NODE": 183.6699, "ARG_OF_PERICENTER": 339.1457, "MEAN_ANOMALY": 20.3896, "EPHEMERIS_TYPE": 0, "CLASSIFICATION_TYPE": "U", "NORAD_CAT_ID": 30314, "ELEMENT_SET_NO": 999, "REV_AT_EPOCH": 96201, "BSTAR": 0.00090289, "MEAN_MOTION_DOT": 1.445e-05, "MEAN_MOTION_DDOT": 0}, "tle": {"line1": "1 30314U 99025AAB 25353.32919388  .00001445  00000+0  90289-3 0  9991", "line2": "2 30314  98.3834 183.6699 0143407 339.1457  20.3896 14.01213960962014"}}, "geometry": {"type": "Point", "coordinates": [-137.79536665297394, -74.49823645891657]}}, {"type": "Feature", "properties": {"norad_id": 30315, "name": "FENGYUN 1C DEB", "group": "fengyun-1c-debris", "lat": -59.27272495700834, "lon": 174.6698812414227, "alt_km": 831.3538643153997, "timestamp": "2025-12-26T07:29:18.731133+00:00", "meta": {"OBJECT_NAME": "FENGYUN 1C DEB", "OBJECT_ID": "1999-025AAC", "EPOCH": "2025-12-25T23:50:23.821728", "MEAN_MOTION": 14.1908285, "ECCENTRICITY": 0.00345802, "INCLINATION": 98.6016, "RA_OF_ASC_NODE": 9.1131, "ARG_OF_PERICENTER": 321.7466, "MEAN_ANOMALY": 91.7925, "EPHEMERIS_TYPE": 0, "CLASSIFICATION_TYPE": "U", "NORAD_CAT_ID": 30315, "ELEMENT_SET_NO": 999, "REV_AT_EPOCH": 97895, "BSTAR": 0.00031986413, "MEAN_MOTION_DOT": 6.3e-06, "MEAN_MOTION_DDOT": 0}, "tle": {"line1": "1 30315U 99025AAC 25359.99333127  .00000630  00000+0  31986-3 0  9996", "line2": "2 30315  98.6016   9.1131 0034580 321.7466  91.7925 14.19082850978957"}}, "geometry": {"type": "Point", "coordinates": [174.6698812414227, -59.27272495700834]}}, {"type": "Feature", "properties": {"norad_id": 30316, "name": "FENGYUN 1C DEB", "group": "fengyun-1c-debris", "lat": -54.96725991503502, "lon": 115.75765955919913, "alt_km": 697.2036901781157, "timestamp": "2025-12-26T07:29:18.731143+00:00", "meta": {"OBJECT_NAME": "FENGYUN 1C DEB", "OBJECT_ID": "1999-025AAD", "EPOCH": "2025-12-25T05:21:34.720992", "MEAN_MOTION": 14.56278684, "ECCENTRICITY": 0.0035142, "INCLINATION": 98.6477, "RA_OF_ASC_NODE": 102.0917, "ARG_OF_PERICENTER": 0.7198, "MEAN_ANOMALY": 359.4043, "EPHEMERIS_TYPE": 0, "CLASSIFICATION_TYPE": "U", "NORAD_CAT_ID": 30316, "ELEMENT_SET_NO": 999, "REV_AT_EPOCH": 98518, "BSTAR": 0.0021656, "MEAN_MOTION_DOT": 9.627e-05, "MEAN_MOTION_DDOT": 0}, "tle": {"line1": "1 30316U 99025AAD 25359.22331853  .00009627  00000+0  21656-2 0  9994", "line2": "2 30316  98.6477 102.0917 0035142   0.7198 359.4043 14.56278684985186"}}, "geometry": {"type": "Point", "coordinates": [115.75765955919913, -54.96725991503502]}}, {"type": "Feature", "properties": {"norad_id": 30317, "name": "FENGYUN 1C DEB", "group": "fengyun-1c-debris", "lat": 1.4207182115482948, "lon": 0.17914985511546677, "alt_km": 882.4343854626813, "timestamp": "2025-12-26T07:29:18.731154+00:00", "meta": {"OBJECT_NAME": "FENGYUN 1C DEB", "OBJECT_ID": "1999-025AAE", "EPOCH": "2025-12-25T22:56:52.401120", "MEAN_MOTION": 14.06953973, "ECCENTRICITY": 0.00242351, "INCLINATION": 98.7867, "RA_OF_ASC_NODE": 0.0532, "ARG_OF_PERICENTER": 238.086, "MEAN_ANOMALY": 121.7951, "EPHEMERIS_TYPE": 0, "CLASSIFICATION_TYPE": "U", "NORAD_CAT_ID": 30317, "ELEMENT_SET_NO": 999, "REV_AT_EPOCH": 97199, "BSTAR": 0.00011418614, "MEAN_MOTION_DOT": 1.48e-06, "MEAN_MOTION_DDOT": 0}, "tle": {"line1": "1 30317U 99025AAE 25359.95616205  .00000148  00000+0  11419-3 0  9998", "line2": "2 30317  98.7867   0.0532 0024235 238.0860 121.7951 14.06953973971992"}}, "geometry": {"type": "Point", "coordinates": [0.17914985511546677, 1.4207182115482948]}}]}